[{"OBJECT_NAME":"OBJECT Y","OBJECT_ID":"2023-085Y","EPOCH":"2026-03-09T22:38:54.992256","MEAN_MOTION":15.32500153,"ECCENTRICITY":0.00063298,"INCLINATION":97.4849,"RA_OF_ASC_NODE":180.8653,"ARG_OF_PERICENTER":67.4431,"MEAN_ANOMALY":292.748,"EPHEMERIS_TYPE":0,"CLASSIFICATION_TYPE":"U","NORAD_CAT_ID":57026,"ELEMENT_SET_NO":999,"REV_AT_EPOCH":15160,"BSTAR":0.00065512761,"MEAN_MOTION_DOT":0.00020524,"MEAN_MOTION_DDOT":0},{"OBJECT_NAME":"STARLINK-35037","OBJECT_ID":"2025-195AB","EPOCH":"2026-03-09T19:30:40.673664","MEAN_MOTION":15.30184934,"ECCENTRICITY":0.00011903,"INCLINATION":53.1574,"RA_OF_ASC_NODE":257.5024,"ARG_OF_PERICENTER":91.5872,"MEAN_ANOMALY":268.5265,"EPHEMERIS_TYPE":0,"CLASSIFICATION_TYPE":"U","NORAD_CAT_ID":65483,"ELEMENT_SET_NO":999,"REV_AT_EPOCH":2999,"BSTAR":0.00066153901,"MEAN_MOTION_DOT":0.00019275,"MEAN_MOTION_DDOT":0}]
